{
    "links": {
        "self": "http://www.neowsapp.com/rest/v1/neo/54006018?api_key=iIulBulltgU6a56xZRHN4H3l9WmuAYTsLGpBGhQ2"
    },
    "id": "54006018",
    "neo_reference_id": "54006018",
    "name": "(2020 CE3)",
    "designation": "2020 CE3",
    "nasa_jpl_url": "http://ssd.jpl.nasa.gov/sbdb.cgi?sstr=54006018",
    "absolute_magnitude_h": 24.554,
    "estimated_diameter": {
        "kilometers": {
            "estimated_diameter_min": 0.0326403627,
            "estimated_diameter_max": 0.0729860699
        },
        "meters": {
            "estimated_diameter_min": 32.6403627461,
            "estimated_diameter_max": 72.9860699106
        },
        "miles": {
            "estimated_diameter_min": 0.0202817748,
            "estimated_diameter_max": 0.0453514272
        },
        "feet": {
            "estimated_diameter_min": 107.0878077121,
            "estimated_diameter_max": 239.4556176056
        }
    },
    "is_potentially_hazardous_asteroid": false,
    "close_approach_data": [
        {
            "close_approach_date": "2020-01-30",
            "close_approach_date_full": "2020-Jan-30 15:44",
            "epoch_date_close_approach": 1580399040000,
            "relative_velocity": {
                "kilometers_per_second": "16.6146635733",
                "kilometers_per_hour": "59812.7888638015",
                "miles_per_hour": "37165.340947066"
            },
            "miss_distance": {
                "astronomical": "0.068795964",
                "lunar": "26.761629996",
                "kilometers": "10291729.67899668",
                "miles": "6394984.283166984"
            },
            "orbiting_body": "Earth"
        },
        {
            "close_approach_date": "2152-02-16",
            "close_approach_date_full": "2152-Feb-16 23:09",
            "epoch_date_close_approach": 5747411340000,
            "relative_velocity": {
                "kilometers_per_second": "11.893456647",
                "kilometers_per_hour": "42816.4439290744",
                "miles_per_hour": "26604.4731735962"
            },
            "miss_distance": {
                "astronomical": "0.4042707857",
                "lunar": "157.2613356373",
                "kilometers": "60478048.443946459",
                "miles": "37579316.7269967742"
            },
            "orbiting_body": "Earth"
        }
    ],
    "orbital_data": {
        "orbit_id": "1",
        "orbit_determination_date": "2020-02-29 11:12:09",
        "first_observation_date": "2020-02-05",
        "last_observation_date": "2020-02-06",
        "data_arc_in_days": 1,
        "observations_used": 10,
        "orbit_uncertainty": "9",
        "minimum_orbit_intersection": ".0516311",
        "jupiter_tisserand_invariant": "6.024",
        "epoch_osculation": "2458885.5",
        "eccentricity": ".5130983648466702",
        "semi_major_axis": ".9800412085146194",
        "inclination": "16.41586792545133",
        "ascending_node_longitude": "122.2924245148369",
        "orbital_period": "354.3765147838946",
        "perihelion_distance": ".4771836669434137",
        "perihelion_argument": "250.5510067258747",
        "aphelion_distance": "1.482898750085825",
        "perihelion_time": "2458820.371556849547",
        "mean_anomaly": "66.1619451516448",
        "mean_motion": "1.015868673519561",
        "equinox": "J2000",
        "orbit_class": {
            "orbit_class_type": "ATE",
            "orbit_class_description": "Near-Earth asteroid orbits similar to that of 2062 Aten",
            "orbit_class_range": "a (semi-major axis) < 1.0 AU; q (perihelion) > 0.983 AU"
        }
    },
    "is_sentry_object": false
}